{"spkid": "20162120", "covariance": {"epoch": "2458904.5", "data": [["3.391480340642906E-15", "-3.689936408178874E-15", "-3.443512614211424E-13", "-3.87986473149553E-13", "4.460462405247921E-13", "1.539390732168661E-14"], ["-3.689936408178874E-15", "4.014708210074885E-15", "3.747618208608011E-13", "4.201350521451355E-13", "-4.833860448113115E-13", "-1.673541800112749E-14"], ["-3.443512614211424E-13", "3.747618208608011E-13", "1.151603243539281E-10", "1.037075618496447E-10", "-7.840278304057089E-11", "-1.880814358471842E-12"], ["-3.87986473149553E-13", "4.201350521451355E-13", "1.037075618496447E-10", "1.021262583537824E-8", "-1.018173767076655E-8", "-3.014500786677647E-10"], ["4.460462405247921E-13", "-4.833860448113115E-13", "-7.840278304057089E-11", "-1.018173767076655E-8", "1.017013102973615E-8", "3.013614164834036E-10"], ["1.539390732168661E-14", "-1.673541800112749E-14", "-1.880814358471842E-12", "-3.014500786677647E-10", "3.013614164834036E-10", "1.719961766243921E-11"]], "elements": [{"label": "e", "units": null, "title": "eccentricity", "value": ".5710231738856787", "name": "e", "sigma": 5.82364176494649e-08}, {"units": "au", "value": ".4666687115440572", "title": "perihelion distance", "name": "q", "sigma": 6.33617251191513e-08, "label": "q"}, {"label": "tp", "units": "TDB", "title": "time of perihelion passage", "value": "2459035.327136392758", "sigma": 1.07312778527968e-05, "name": "tp"}, {"label": "node", "title": "longitude of the ascending node", "value": "217.9128323669825", "units": "deg", "name": "om", "sigma": 0.000101057537251698}, {"sigma": 0.000100847067531665, "name": "w", "title": "argument of perihelion", "value": "278.728819561898", "units": "deg", "label": "peri"}, {"label": "i", "name": "i", "sigma": 4.1472421755233e-06, "units": "deg", "title": "inclination", "value": "2.131217420907825"}], "labels": ["e", "q", "tp", "node", "peri", "i"]}, "elements": [{"label": "e", "sigma": "5.8266E-8", "name": "e", "value": ".5709864222286731", "title": "eccentricity", "units": null}, {"name": "a", "sigma": "5.5067E-10", "title": "semi-major axis", "value": "1.087804642464157", "units": "au", "label": "a"}, {"label": "q", "sigma": "6.3321E-8", "name": "q", "value": ".466682961579807", "title": "perihelion distance", "units": "au"}, {"label": "i", "name": "i", "sigma": "4.1513E-6", "units": "deg", "value": "2.132666801005514", "title": "inclination; angle with respect to x-y ecliptic plane"}, {"sigma": ".00010091", "name": "om", "units": "deg", "title": "longitude of the ascending node", "value": "217.808296821478", "label": "node"}, {"sigma": ".0001007", "name": "w", "units": "deg", "value": "278.8587953042037", "title": "argument of perihelion", "label": "peri"}, {"label": "M", "name": "ma", "sigma": "9.1501E-6", "units": "deg", "title": "mean anomaly", "value": "80.75631567458991"}, {"title": "time of perihelion passage", "value": "2461107.539428493979", "units": "TDB", "sigma": "1.0561E-5", "name": "tp", "label": "tp"}, {"name": "per", "sigma": "3.1467E-7", "units": "d", "value": "414.4048110988522", "title": "sidereal orbital period", "label": "period"}, {"label": "n", "sigma": "6.5964E-10", "name": "n", "value": ".8687157831141239", "title": "mean motion", "units": "deg/d"}, {"name": "ad", "sigma": "8.6509E-10", "value": "1.708926323348507", "title": "aphelion distance", "units": "au", "label": "Q"}], "epoch": "2461200.5"}